[{"OBJECT_NAME":"TECHNOSAT","OBJECT_ID":"2017-042E","EPOCH":"2026-02-01T23:16:01.290432","MEAN_MOTION":15.03931065,"ECCENTRICITY":0.00176655,"INCLINATION":97.409,"RA_OF_ASC_NODE":195.9985,"ARG_OF_PERICENTER":189.7947,"MEAN_ANOMALY":170.2938,"EPHEMERIS_TYPE":0,"CLASSIFICATION_TYPE":"U","NORAD_CAT_ID":42829,"ELEMENT_SET_NO":999,"REV_AT_EPOCH":46637,"BSTAR":0.00028104757,"MEAN_MOTION_DOT":3.83e-5,"MEAN_MOTION_DDOT":0},{"OBJECT_NAME":"FLYING LAPTOP","OBJECT_ID":"2017-042G","EPOCH":"2026-02-01T23:09:15.155136","MEAN_MOTION":15.00261966,"ECCENTRICITY":0.00151757,"INCLINATION":97.4204,"RA_OF_ASC_NODE":194.2515,"ARG_OF_PERICENTER":220.0248,"MEAN_ANOMALY":139.9859,"EPHEMERIS_TYPE":0,"CLASSIFICATION_TYPE":"U","NORAD_CAT_ID":42831,"ELEMENT_SET_NO":999,"REV_AT_EPOCH":46617,"BSTAR":0.00031906437,"MEAN_MOTION_DOT":3.948e-5,"MEAN_MOTION_DDOT":0},{"OBJECT_NAME":"HAWK-A","OBJECT_ID":"2018-099H","EPOCH":"2026-02-01T16:04:27.022944","MEAN_MOTION":15.2260518,"ECCENTRICITY":0.00374817,"INCLINATION":97.413,"RA_OF_ASC_NODE":86.7185,"ARG_OF_PERICENTER":43.9526,"MEAN_ANOMALY":316.4681,"EPHEMERIS_TYPE":0,"CLASSIFICATION_TYPE":"U","NORAD_CAT_ID":43765,"ELEMENT_SET_NO":999,"REV_AT_EPOCH":39246,"BSTAR":0.00029867742,"MEAN_MOTION_DOT":7.006e-5,"MEAN_MOTION_DDOT":0},{"OBJECT_NAME":"HAWK-B","OBJECT_ID":"2018-099AN","EPOCH":"2026-02-01T19:11:14.265024","MEAN_MOTION":15.20956249,"ECCENTRICITY":0.00347382,"INCLINATION":97.4176,"RA_OF_ASC_NODE":86.5289,"ARG_OF_PERICENTER":59.8724,"MEAN_ANOMALY":300.5947,"EPHEMERIS_TYPE":0,"CLASSIFICATION_TYPE":"U","NORAD_CAT_ID":43794,"ELEMENT_SET_NO":999,"REV_AT_EPOCH":39244,"BSTAR":0.00028117686,"MEAN_MOTION_DOT":6.259e-5,"MEAN_MOTION_DDOT":0},{"OBJECT_NAME":"HAWK-C","OBJECT_ID":"2018-099AT","EPOCH":"2026-02-01T22:28:28.292448","MEAN_MOTION":15.2567465,"ECCENTRICITY":0.00437954,"INCLINATION":97.4107,"RA_OF_ASC_NODE":87.2669,"ARG_OF_PERICENTER":45.2917,"MEAN_ANOMALY":315.1875,"EPHEMERIS_TYPE":0,"CLASSIFICATION_TYPE":"U","NORAD_CAT_ID":43799,"ELEMENT_SET_NO":999,"REV_AT_EPOCH":39327,"BSTAR":0.00031869212,"MEAN_MOTION_DOT":8.268e-5,"MEAN_MOTION_DDOT":0},{"OBJECT_NAME":"SALSAT","OBJECT_ID":"2020-068K","EPOCH":"2026-02-01T23:28:21.133632","MEAN_MOTION":15.27407493,"ECCENTRICITY":0.00120503,"INCLINATION":97.882,"RA_OF_ASC_NODE":28.0663,"ARG_OF_PERICENTER":61.9502,"MEAN_ANOMALY":298.2953,"EPHEMERIS_TYPE":0,"CLASSIFICATION_TYPE":"U","NORAD_CAT_ID":46495,"ELEMENT_SET_NO":999,"REV_AT_EPOCH":29470,"BSTAR":0.00032406807,"MEAN_MOTION_DOT":8.632e-5,"MEAN_MOTION_DDOT":0},{"OBJECT_NAME":"HAWK-2C","OBJECT_ID":"2021-006CT","EPOCH":"2026-02-01T15:27:48.193056","MEAN_MOTION":15.32660807,"ECCENTRICITY":0.00062883,"INCLINATION":97.2489,"RA_OF_ASC_NODE":79.6948,"ARG_OF_PERICENTER":340.9775,"MEAN_ANOMALY":19.1232,"EPHEMERIS_TYPE":0,"CLASSIFICATION_TYPE":"U","NORAD_CAT_ID":47502,"ELEMENT_SET_NO":999,"REV_AT_EPOCH":27872,"BSTAR":0.00027293158,"MEAN_MOTION_DOT":8.538e-5,"MEAN_MOTION_DDOT":0},{"OBJECT_NAME":"HAWK-2A","OBJECT_ID":"2021-006CW","EPOCH":"2026-02-01T13:58:48.965952","MEAN_MOTION":15.32637826,"ECCENTRICITY":0.00060477,"INCLINATION":97.2535,"RA_OF_ASC_NODE":80.2322,"ARG_OF_PERICENTER":345.4694,"MEAN_ANOMALY":14.6374,"EPHEMERIS_TYPE":0,"CLASSIFICATION_TYPE":"U","NORAD_CAT_ID":47505,"ELEMENT_SET_NO":999,"REV_AT_EPOCH":27871,"BSTAR":0.00027574975,"MEAN_MOTION_DOT":8.62e-5,"MEAN_MOTION_DDOT":0},{"OBJECT_NAME":"HAWK-2B","OBJECT_ID":"2021-006CZ","EPOCH":"2026-02-01T17:02:12.733440","MEAN_MOTION":15.32661731,"ECCENTRICITY":0.00065939,"INCLINATION":97.2401,"RA_OF_ASC_NODE":78.9172,"ARG_OF_PERICENTER":341.7125,"MEAN_ANOMALY":18.388,"EPHEMERIS_TYPE":0,"CLASSIFICATION_TYPE":"U","NORAD_CAT_ID":47508,"ELEMENT_SET_NO":999,"REV_AT_EPOCH":27873,"BSTAR":0.00023299733,"MEAN_MOTION_DOT":7.277e-5,"MEAN_MOTION_DDOT":0},{"OBJECT_NAME":"HAWK-3B","OBJECT_ID":"2021-059BE","EPOCH":"2026-02-01T22:51:12.894048","MEAN_MOTION":15.58731934,"ECCENTRICITY":0.00064848,"INCLINATION":97.6699,"RA_OF_ASC_NODE":217.9616,"ARG_OF_PERICENTER":102.7349,"MEAN_ANOMALY":257.4631,"EPHEMERIS_TYPE":0,"CLASSIFICATION_TYPE":"U","NORAD_CAT_ID":48931,"ELEMENT_SET_NO":999,"REV_AT_EPOCH":25671,"BSTAR":0.00041647997,"MEAN_MOTION_DOT":0.00032057,"MEAN_MOTION_DDOT":0},{"OBJECT_NAME":"HAWK-3C","OBJECT_ID":"2021-059BX","EPOCH":"2026-02-01T22:50:54.200544","MEAN_MOTION":15.5872032,"ECCENTRICITY":0.00069149,"INCLINATION":97.6857,"RA_OF_ASC_NODE":223.3851,"ARG_OF_PERICENTER":102.853,"MEAN_ANOMALY":257.3498,"EPHEMERIS_TYPE":0,"CLASSIFICATION_TYPE":"U","NORAD_CAT_ID":48948,"ELEMENT_SET_NO":999,"REV_AT_EPOCH":25671,"BSTAR":0.00042593332,"MEAN_MOTION_DOT":0.0003278,"MEAN_MOTION_DDOT":0},{"OBJECT_NAME":"HAWK-3A","OBJECT_ID":"2021-059CG","EPOCH":"2026-02-01T22:50:40.050816","MEAN_MOTION":15.5872587,"ECCENTRICITY":0.00065207,"INCLINATION":97.6787,"RA_OF_ASC_NODE":220.7065,"ARG_OF_PERICENTER":101.8047,"MEAN_ANOMALY":258.394,"EPHEMERIS_TYPE":0,"CLASSIFICATION_TYPE":"U","NORAD_CAT_ID":48957,"ELEMENT_SET_NO":999,"REV_AT_EPOCH":25671,"BSTAR":0.00042118998,"MEAN_MOTION_DOT":0.00032415,"MEAN_MOTION_DDOT":0},{"OBJECT_NAME":"HAWK-5C","OBJECT_ID":"2022-057Y","EPOCH":"2026-02-01T22:43:32.426976","MEAN_MOTION":15.45842678,"ECCENTRICITY":0.00049785,"INCLINATION":97.6406,"RA_OF_ASC_NODE":184.6132,"ARG_OF_PERICENTER":192.9224,"MEAN_ANOMALY":167.1898,"EPHEMERIS_TYPE":0,"CLASSIFICATION_TYPE":"U","NORAD_CAT_ID":52754,"ELEMENT_SET_NO":999,"REV_AT_EPOCH":20541,"BSTAR":0.00039342463,"MEAN_MOTION_DOT":0.00019023,"MEAN_MOTION_DDOT":0},{"OBJECT_NAME":"HAWK-5B","OBJECT_ID":"2022-057AA","EPOCH":"2026-02-01T22:43:19.266528","MEAN_MOTION":15.45842667,"ECCENTRICITY":0.00050143,"INCLINATION":97.6388,"RA_OF_ASC_NODE":182.9586,"ARG_OF_PERICENTER":188.6876,"MEAN_ANOMALY":171.4286,"EPHEMERIS_TYPE":0,"CLASSIFICATION_TYPE":"U","NORAD_CAT_ID":52756,"ELEMENT_SET_NO":999,"REV_AT_EPOCH":20541,"BSTAR":0.00039868844,"MEAN_MOTION_DOT":0.00019279,"MEAN_MOTION_DDOT":0},{"OBJECT_NAME":"HAWK-5A","OBJECT_ID":"2022-057AB","EPOCH":"2026-02-01T22:42:57.212928","MEAN_MOTION":15.4584302,"ECCENTRICITY":0.00054079,"INCLINATION":97.6398,"RA_OF_ASC_NODE":183.7889,"ARG_OF_PERICENTER":190.1488,"MEAN_ANOMALY":169.9652,"EPHEMERIS_TYPE":0,"CLASSIFICATION_TYPE":"U","NORAD_CAT_ID":52757,"ELEMENT_SET_NO":999,"REV_AT_EPOCH":20541,"BSTAR":0.00041798381,"MEAN_MOTION_DOT":0.00020221,"MEAN_MOTION_DDOT":0},{"OBJECT_NAME":"HAWK-6B","OBJECT_ID":"2023-011A","EPOCH":"2026-02-01T02:47:19.009536","MEAN_MOTION":15.21383009,"ECCENTRICITY":0.00026751,"INCLINATION":40.5148,"RA_OF_ASC_NODE":64.8337,"ARG_OF_PERICENTER":191.0706,"MEAN_ANOMALY":169.0045,"EPHEMERIS_TYPE":0,"CLASSIFICATION_TYPE":"U","NORAD_CAT_ID":55324,"ELEMENT_SET_NO":999,"REV_AT_EPOCH":16710,"BSTAR":0.00025106969,"MEAN_MOTION_DOT":5.559e-5,"MEAN_MOTION_DDOT":0},{"OBJECT_NAME":"HAWK-6C","OBJECT_ID":"2023-011C","EPOCH":"2026-02-01T18:31:41.794464","MEAN_MOTION":15.21389848,"ECCENTRICITY":0.00024235,"INCLINATION":40.4834,"RA_OF_ASC_NODE":57.9809,"ARG_OF_PERICENTER":180.287,"MEAN_ANOMALY":179.7937,"EPHEMERIS_TYPE":0,"CLASSIFICATION_TYPE":"U","NORAD_CAT_ID":55326,"ELEMENT_SET_NO":999,"REV_AT_EPOCH":16721,"BSTAR":0.00028542416,"MEAN_MOTION_DOT":6.349e-5,"MEAN_MOTION_DDOT":0}]
