TECHNOSAT               
1 42829U 17042E   26032.96945938  .00003830  00000+0  28105-3 0  9997
2 42829  97.4090 195.9985 0017665 189.7947 170.2938 15.03931065466371
FLYING LAPTOP           
1 42831U 17042G   26032.96475874  .00003948  00000+0  31906-3 0  9990
2 42831  97.4204 194.2515 0015175 220.0248 139.9859 15.00261966466174
HAWK-A                  
1 43765U 18099H   26032.66975721  .00007006  00000+0  29868-3 0  9996
2 43765  97.4130  86.7185 0037481  43.9526 316.4681 15.22605180392461
HAWK-B                  
1 43794U 18099AN  26032.79947066  .00006259  00000+0  28118-3 0  9999
2 43794  97.4176  86.5289 0034738  59.8724 300.5947 15.20956249392444
HAWK-C                  
1 43799U 18099AT  26032.93643857  .00008268  00000+0  31869-3 0  9990
2 43799  97.4107  87.2669 0043795  45.2917 315.1875 15.25674650393271
SALSAT                  
1 46495U 20068K   26032.97802238  .00008632  00000+0  32407-3 0  9993
2 46495  97.8820  28.0663 0012050  61.9502 298.2953 15.27407493294702
HAWK-2C                 
1 47502U 21006CT  26032.64430779  .00008538  00000+0  27293-3 0  9999
2 47502  97.2489  79.6948 0006288 340.9775  19.1232 15.32660807278723
HAWK-2A                 
1 47505U 21006CW  26032.58251118  .00008620  00000+0  27575-3 0  9998
2 47505  97.2535  80.2322 0006047 345.4694  14.6374 15.32637826278716
HAWK-2B                 
1 47508U 21006CZ  26032.70986960  .00007277  00000+0  23300-3 0  9994
2 47508  97.2401  78.9172 0006593 341.7125  18.3880 15.32661731278739
HAWK-3B                 
1 48931U 21059BE  26032.95223257  .00032057  00000+0  41648-3 0  9992
2 48931  97.6699 217.9616 0006484 102.7349 257.4631 15.58731934256718
HAWK-3C                 
1 48948U 21059BX  26032.95201621  .00032780  00000+0  42593-3 0  9994
2 48948  97.6857 223.3851 0006914 102.8530 257.3498 15.58720320256712
HAWK-3A                 
1 48957U 21059CG  26032.95185244  .00032415  00000+0  42119-3 0  9995
2 48957  97.6787 220.7065 0006520 101.8047 258.3940 15.58725870256715
HAWK-5C                 
1 52754U 22057Y   26032.94690309  .00019023  00000+0  39342-3 0  9990
2 52754  97.6406 184.6132 0004978 192.9224 167.1898 15.45842678205411
HAWK-5B                 
1 52756U 22057AA  26032.94675077  .00019279  00000+0  39869-3 0  9994
2 52756  97.6388 182.9586 0005014 188.6876 171.4286 15.45842667205410
HAWK-5A                 
1 52757U 22057AB  26032.94649552  .00020221  00000+0  41798-3 0  9997
2 52757  97.6398 183.7889 0005407 190.1488 169.9652 15.45843020205413
HAWK-6B                 
1 55324U 23011A   26032.11619224  .00005559  00000+0  25107-3 0  9996
2 55324  40.5148  64.8337 0002675 191.0706 169.0045 15.21383009167100
HAWK-6C                 
1 55326U 23011C   26032.77201151  .00006349  00000+0  28542-3 0  9990
2 55326  40.4834  57.9809 0002423 180.2870 179.7937 15.21389848167210
